[{"OBJECT_NAME":"TIANQI-32","OBJECT_ID":"2024-170D","EPOCH":"2026-03-09T20:21:14.411808","MEAN_MOTION":13.9912372,"ECCENTRICITY":0.00075162,"INCLINATION":44.8595,"RA_OF_ASC_NODE":220.375,"ARG_OF_PERICENTER":321.7813,"MEAN_ANOMALY":38.2484,"EPHEMERIS_TYPE":0,"CLASSIFICATION_TYPE":"U","NORAD_CAT_ID":61198,"ELEMENT_SET_NO":999,"REV_AT_EPOCH":7062,"BSTAR":0.00014755329,"MEAN_MOTION_DOT":8.7e-7,"MEAN_MOTION_DDOT":0},{"OBJECT_NAME":"UNKNOWN","OBJECT_ID":"","EPOCH":"2026-03-06T03:16:20.115552","MEAN_MOTION":13.9183835,"ECCENTRICITY":0.0103769,"INCLINATION":99.2424,"RA_OF_ASC_NODE":125.396,"ARG_OF_PERICENTER":59.3614,"MEAN_ANOMALY":330.8365,"EPHEMERIS_TYPE":0,"CLASSIFICATION_TYPE":"U","NORAD_CAT_ID":87237,"ELEMENT_SET_NO":999,"REV_AT_EPOCH":62336,"BSTAR":0.00024537,"MEAN_MOTION_DOT":2.82e-6,"MEAN_MOTION_DDOT":0}]
